MALLIGYONG-1            
1 58400U 23179A   24119.87904859  .00007526  00000+0  33006-3 0  9990
2 58400  97.4094   7.4708 0011179  79.6343 280.6153 15.22205880 24227
